NORAD_CAT_ID,OBJECT_NAME,OBJECT_TYPE,EPOCH,MEAN_MOTION,ECCENTRICITY,INCLINATION,RA_OF_ASC_NODE,ARG_OF_PERICENTER,MEAN_ANOMALY,BSTAR,MEAN_MOTION_DOT,MEAN_MOTION_DDOT,TLE_LINE0,TLE_LINE1,TLE_LINE2,SEMIMAJOR_AXIS,PERIOD,APOGEE,PERIGEE,DECAYED
55405.0,STARLINK-5623,PAYLOAD,2024-05-05 21:03:09,14.98330475,0.0003061,69.9985,320.8946,268.4147,91.6662,5.7832e-05,5.97e-06,0.0,0 STARLINK-5623,1 55405U 23014Q   24126.87719463  .00000597  00000-0  57832-4 0  9999,2 55405  69.9985 320.8946 0003061 268.4147  91.6662 14.98330475 70338,6950.191,96.107,574.184,569.929,0.0
55405.0,STARLINK-5623,PAYLOAD,2024-05-05 22:39:17,14.98331498,0.0003055,69.9985,320.7264,268.4325,91.6485,6.8191e-05,7.21e-06,0.0,0 STARLINK-5623,1 55405U 23014Q   24126.94395364  .00000721  00000-0  68191-4 0  9996,2 55405  69.9985 320.7264 0003055 268.4325  91.6485 14.98331498 71285,6950.188,96.107,574.177,569.93,0.0
55405.0,STARLINK-5623,PAYLOAD,2024-05-06 14:40:38,14.98331908,0.0003068,69.9984,319.0428,268.447,91.6338,2.0037e-05,1.46e-06,0.0,0 STARLINK-5623,1 55405U 23014Q   24127.61155372  .00000146  00000-0  20037-4 0  9992,2 55405  69.9984 319.0428 0003068 268.4470  91.6338 14.98331908 71386,6950.187,96.107,574.184,569.92,0.0
55405.0,STARLINK-5623,PAYLOAD,2024-05-06 21:05:10,14.98336153,0.0003067,69.9984,318.3698,269.4884,90.5923,3.8231e-05,3.63e-06,0.0,0 STARLINK-5623,1 55405U 23014Q   24127.87858981  .00000363  00000-0  38231-4 0  9992,2 55405  69.9984 318.3698 0003067 269.4884  90.5923 14.98336153 70481,6950.174,96.107,574.17,569.907,0.0
55405.0,STARLINK-5623,PAYLOAD,2024-05-06 22:41:18,14.98336609,0.0003064,69.9984,318.2015,269.484,90.5968,4.2672e-05,4.16e-06,0.0,0 STARLINK-5623,1 55405U 23014Q   24127.94534913  .00000416  00000-0  42672-4 0  9999,2 55405  69.9984 318.2015 0003064 269.4840  90.5968 14.98336609 71433,6950.172,96.107,574.167,569.908,0.0
55405.0,STARLINK-5623,PAYLOAD,2024-05-07 13:06:31,14.98328217,0.0002903,69.9988,316.6862,270.3521,89.7306,-3.0556e-05,-4.58e-06,0.0,0 STARLINK-5623,1 55405U 23014Q   24128.54619584 -.00000458  00000-0 -30556-4 0  9990,2 55405  69.9988 316.6862 0002903 270.3521  89.7306 14.98328217 70584,6950.198,96.107,574.081,570.046,0.0
55405.0,STARLINK-5623,PAYLOAD,2024-05-07 14:42:39,14.98327565,0.0002918,69.9987,316.5178,270.2625,89.82,-3.8811e-05,-5.56e-06,0.0,0 STARLINK-5623,1 55405U 23014Q   24128.61295647 -.00000556  00000-0 -38811-4 0  9999,2 55405  69.9987 316.5178 0002918 270.2625  89.8200 14.98327565 71537,6950.2,96.107,574.093,570.037,0.0
55405.0,STARLINK-5623,PAYLOAD,2024-05-07 21:07:11,14.98326885,0.0002934,69.9987,315.8445,270.285,89.7973,-4.4748e-05,-6.27e-06,0.0,0 STARLINK-5623,1 55405U 23014Q   24128.87999729 -.00000627  00000-0 -44748-4 0  9994,2 55405  69.9987 315.8445 0002934 270.2850  89.7973 14.98326885 71578,6950.203,96.107,574.107,570.028,0.0
55405.0,STARLINK-5623,PAYLOAD,2024-05-08 13:08:32,14.98328953,0.0002922,69.9986,314.1611,270.5925,89.4899,-2.4259e-05,-3.82e-06,0.0,0 STARLINK-5623,1 55405U 23014Q   24129.54759625 -.00000382  00000-0 -24259-4 0  9991,2 55405  69.9986 314.1611 0002922 270.5925  89.4899 14.98328953 70736,6950.196,96.107,574.092,570.03,0.0
55405.0,STARLINK-5623,PAYLOAD,2024-05-08 14:44:40,14.98328817,0.0002928,69.9986,313.9927,270.5525,89.5299,-2.4597e-05,-3.86e-06,0.0,0 STARLINK-5623,1 55405U 23014Q   24129.61435636 -.00000386  00000-0 -24597-4 0  9991,2 55405  69.9986 313.9927 0002928 270.5525  89.5299 14.98328817 71684,6950.197,96.107,574.097,570.027,0.0
55405.0,STARLINK-5623,PAYLOAD,2024-05-08 22:45:20,14.98330395,0.0002925,69.9987,313.1512,270.4649,89.6175,-9.7254e-06,-2.09e-06,0.0,0 STARLINK-5623,1 55405U 23014Q   24129.94815496 -.00000209  00000-0 -97254-5 0  9998,2 55405  69.9987 313.1512 0002925 270.4649  89.6175 14.98330395 71734,6950.192,96.107,574.09,570.024,0.0
55405.0,STARLINK-5623,PAYLOAD,2024-05-09 13:10:32,14.98330493,0.0003033,69.9986,311.6364,270.3471,89.734,8.4464e-05,9.15e-06,0.0,0 STARLINK-5623,1 55405U 23014Q   24130.54899204  .00000915  00000-0  84464-4 0  9995,2 55405  69.9986 311.6364 0003033 270.3471  89.7340 14.98330493 70883,6950.191,96.107,574.164,569.948,0.0
55405.0,STARLINK-5623,PAYLOAD,2024-05-09 14:46:40,14.98330683,0.0003034,69.9986,311.468,270.2708,89.8104,8.4956e-05,9.21e-06,0.0,0 STARLINK-5623,1 55405U 23014Q   24130.61575187  .00000921  00000-0  84956-4 0  9997,2 55405  69.9986 311.4680 0003034 270.2708  89.8104 14.98330683 71831,6950.191,96.107,574.164,569.947,0.0
55405.0,STARLINK-5623,PAYLOAD,2024-05-09 21:11:13,14.98333418,0.0003007,69.9987,310.7946,270.6274,89.454,0.00011057,1.227e-05,0.0,0 STARLINK-5623,1 55405U 23014Q   24130.88278942  .00001227  00000-0  11057-3 0  9996,2 55405  69.9987 310.7946 0003007 270.6274  89.4540 14.98333418 71874,6950.182,96.107,574.137,569.957,0.0
55405.0,STARLINK-5623,PAYLOAD,2024-05-10 14:48:42,14.98326713,0.0002884,69.9991,308.9428,268.9572,91.1256,-3.1834e-06,-1.31e-06,0.0,0 STARLINK-5623,1 55405U 23014Q   24131.61715693 -.00000131  00000-0 -31834-5 0  9999,2 55405  69.9991 308.9428 0002884 268.9572  91.1256 14.98326713 71982,6950.203,96.107,574.072,570.064,0.0
55405.0,STARLINK-5623,PAYLOAD,2024-05-10 21:13:14,14.98327673,0.000288,69.9992,308.2696,267.9748,92.1081,3.7069e-06,-4.9e-07,0.0,0 STARLINK-5623,1 55405U 23014Q   24131.88419623 -.00000049  00000-0  37069-5 0  9995,2 55405  69.9992 308.2696 0002880 267.9748  92.1081 14.98327673 72022,6950.2,96.107,574.067,570.063,0.0
55405.0,STARLINK-5623,PAYLOAD,2024-05-11 13:14:33,14.98349016,0.0003432,69.9974,306.5851,268.6621,91.4145,0.00018371,2.101e-05,0.0,0 STARLINK-5623,1 55405U 23014Q   24132.55177163  .00002101  00000-0  18371-3 0  9993,2 55405  69.9974 306.5851 0003432 268.6621  91.4145 14.98349016 71182,6950.134,96.106,574.384,569.614,0.0
55405.0,STARLINK-5623,PAYLOAD,2024-05-11 21:15:16,14.98299109,0.0002504,69.9995,305.7449,273.9108,86.1765,-0.00043053,-5.222e-05,0.0,0 STARLINK-5623,1 55405U 23014Q   24132.88561267 -.00005222  00000-0 -43053-3 0  9995,2 55405  69.9995 305.7449 0002504 273.9108  86.1765 14.98299109 71239,6950.288,96.109,573.894,570.413,0.0
55405.0,STARLINK-5623,PAYLOAD,2024-05-12 13:16:41,14.98259972,0.0002513,69.9986,304.0581,264.862,95.2253,-0.00065657,-7.904e-05,0.0,0 STARLINK-5623,1 55405U 23014Q   24133.55326126 -.00007904  00000-0 -65657-3 0  9996,2 55405  69.9986 304.0581 0002513 264.8620  95.2253 14.98259972 71334,6950.409,96.111,574.021,570.528,0.0
55405.0,STARLINK-5623,PAYLOAD,2024-05-12 14:52:46,14.98305997,0.0002479,69.9986,303.8925,249.1402,110.9492,-0.00010333,-1.325e-05,0.0,0 STARLINK-5623,1 55405U 23014Q   24133.61998080 -.00001325  00000-0 -10333-3 0  9999,2 55405  69.9986 303.8925 0002479 249.1402 110.9492 14.98305997 72282,6950.267,96.109,573.855,570.409,0.0
55405.0,STARLINK-5623,PAYLOAD,2024-05-12 21:17:19,14.98306467,0.0002773,69.9987,303.2193,270.1793,89.9048,-0.00015337,-1.921e-05,0.0,0 STARLINK-5623,1 55405U 23014Q   24133.88702768 -.00001921  00000-0 -15337-3 0  9995,2 55405  69.9987 303.2193 0002773 270.1793  89.9048 14.98306467 71383,6950.266,96.109,574.058,570.203,0.0
55405.0,STARLINK-5623,PAYLOAD,2024-05-13 11:42:30,14.98347171,0.0002857,69.9982,301.7044,270.3515,89.7316,-0.00027828,-3.413e-05,0.0,0 STARLINK-5623,1 55405U 23014Q   24134.48784933 -.00003413  00000-0 -27828-3 0  9992,2 55405  69.9982 301.7044 0002857 270.3515  89.7316 14.98347171 71476,6950.14,96.106,573.99,570.019,0.0
55405.0,STARLINK-5623,PAYLOAD,2024-05-13 18:07:02,14.98349003,0.0002692,69.9983,301.0307,270.7692,89.3159,-0.0002162,-2.673e-05,0.0,0 STARLINK-5623,1 55405U 23014Q   24134.75488490 -.00002673  00000-0 -21620-3 0  9992,2 55405  69.9983 301.0307 0002692 270.7692  89.3159 14.98349003 72455,6950.134,96.106,573.87,570.128,0.0
55405.0,STARLINK-5623,PAYLOAD,2024-05-14 11:44:31,14.98297458,0.0002817,69.9987,299.1789,272.0536,88.0301,0.00090932,0.00010764,0.0,0 STARLINK-5623,1 55405U 23014Q   24135.48925521  .00010764  00000-0  90932-3 0  9994,2 55405  69.9987 299.1789 0002817 272.0536  88.0301 14.98297458 71620,6950.294,96.109,574.116,570.201,0.0
55405.0,STARLINK-5623,PAYLOAD,2024-05-14 21:21:20,14.98306114,0.0002512,69.9987,298.1688,268.8429,91.2442,0.00088944,0.00010529,0.0,0 STARLINK-5623,1 55405U 23014Q   24135.88981653  .00010529  00000-0  88944-3 0  9995,2 55405  69.9987 298.1688 0002512 268.8429  91.2442 14.98306114 72626,6950.267,96.109,573.878,570.386,0.0
55405.0,STARLINK-5623,PAYLOAD,2024-05-15 03:45:51,14.98337845,0.0002629,69.9984,297.4948,275.6684,84.4175,0.00035417,4.136e-05,0.0,0 STARLINK-5623,1 55405U 23014Q   24136.15684685  .00004136  00000-0  35417-3 0  9995,2 55405  69.9984 297.4948 0002629 275.6684  84.4175 14.98337845 71724,6950.169,96.106,573.861,570.206,0.0
55405.0,STARLINK-5623,PAYLOAD,2024-05-15 11:46:31,14.98354394,0.0002689,69.9977,296.6523,278.222,81.8634,0.00014919,1.689e-05,0.0,0 STARLINK-5623,1 55405U 23014Q   24136.49063702  .00001689  00000-0  14919-3 0  9997,2 55405  69.9977 296.6523 0002689 278.2220  81.8634 14.98354394 71771,6950.117,96.105,573.851,570.114,0.0
55405.0,STARLINK-5623,PAYLOAD,2024-05-15 13:22:38,14.98354849,0.0002725,69.9985,296.4844,276.8689,83.216,0.00015192,1.721e-05,0.0,0 STARLINK-5623,1 55405U 23014Q   24136.55739558  .00001721  00000-0  15192-3 0  9994,2 55405  69.9985 296.4844 0002725 276.8689  83.2160 14.98354849 72729,6950.116,96.105,573.875,570.087,0.0
55405.0,STARLINK-5623,PAYLOAD,2024-05-15 19:47:10,14.98361873,0.0002661,69.9989,295.8112,277.4035,82.6821,0.00022429,2.586e-05,0.0,0 STARLINK-5623,1 55405U 23014Q   24136.82442507  .00002586  00000-0  22429-3 0  9990,2 55405  69.9989 295.8112 0002661 277.4035  82.6821 14.98361873 71827,6950.094,96.105,573.809,570.11,0.0
55405.0,STARLINK-5623,PAYLOAD,2024-05-15 21:23:18,14.98363324,0.0002659,69.9989,295.6429,277.018,83.0676,0.00023704,2.739e-05,0.0,0 STARLINK-5623,1 55405U 23014Q   24136.89118264  .00002739  00000-0  23704-3 0  9994,2 55405  69.9989 295.6429 0002659 277.0180  83.0676 14.98363324 72771,6950.09,96.105,573.803,570.107,0.0
